[{"OBJECT_NAME":"STARLINK-3825","OBJECT_ID":"2022-049AD","EPOCH":"2025-12-31T06:31:52.032864","MEAN_MOTION":15.08853629,"ECCENTRICITY":0.00013841,"INCLINATION":53.2188,"RA_OF_ASC_NODE":6.2612,"ARG_OF_PERICENTER":88.0529,"MEAN_ANOMALY":272.0622,"EPHEMERIS_TYPE":0,"CLASSIFICATION_TYPE":"U","NORAD_CAT_ID":52478,"ELEMENT_SET_NO":999,"REV_AT_EPOCH":20316,"BSTAR":0.00018458756,"MEAN_MOTION_DOT":2.652e-5,"MEAN_MOTION_DDOT":0},{"OBJECT_NAME":"STARLINK-3878","OBJECT_ID":"2022-049AE","EPOCH":"2025-12-31T06:54:23.676192","MEAN_MOTION":15.08833979,"ECCENTRICITY":0.00015091,"INCLINATION":53.2194,"RA_OF_ASC_NODE":356.1857,"ARG_OF_PERICENTER":114.3358,"MEAN_ANOMALY":245.7792,"EPHEMERIS_TYPE":0,"CLASSIFICATION_TYPE":"U","NORAD_CAT_ID":52479,"ELEMENT_SET_NO":999,"REV_AT_EPOCH":20330,"BSTAR":6.1631374e-5,"MEAN_MOTION_DOT":6.93e-6,"MEAN_MOTION_DDOT":0},{"OBJECT_NAME":"STARLINK-3839","OBJECT_ID":"2022-049AF","EPOCH":"2025-12-31T06:26:35.095200","MEAN_MOTION":15.08837485,"ECCENTRICITY":0.00013437,"INCLINATION":53.2195,"RA_OF_ASC_NODE":6.2781,"ARG_OF_PERICENTER":87.5289,"MEAN_ANOMALY":272.5857,"EPHEMERIS_TYPE":0,"CLASSIFICATION_TYPE":"U","NORAD_CAT_ID":52480,"ELEMENT_SET_NO":999,"REV_AT_EPOCH":20192,"BSTAR":5.9327514e-5,"MEAN_MOTION_DOT":6.56e-6,"MEAN_MOTION_DDOT":0},{"OBJECT_NAME":"STARLINK-3813","OBJECT_ID":"2022-049AH","EPOCH":"2025-12-31T05:08:25.146816","MEAN_MOTION":15.0883259,"ECCENTRICITY":0.0001282,"INCLINATION":53.2183,"RA_OF_ASC_NODE":356.5201,"ARG_OF_PERICENTER":94.5135,"MEAN_ANOMALY":265.6003,"EPHEMERIS_TYPE":0,"CLASSIFICATION_TYPE":"U","NORAD_CAT_ID":52482,"ELEMENT_SET_NO":999,"REV_AT_EPOCH":20205,"BSTAR":1.1528288e-5,"MEAN_MOTION_DOT":-1.04e-6,"MEAN_MOTION_DDOT":0},{"OBJECT_NAME":"STARLINK-3875","OBJECT_ID":"2022-049AJ","EPOCH":"2025-12-31T06:59:41.930592","MEAN_MOTION":15.08826035,"ECCENTRICITY":0.00014029,"INCLINATION":53.219,"RA_OF_ASC_NODE":356.1728,"ARG_OF_PERICENTER":74.1355,"MEAN_ANOMALY":285.9792,"EPHEMERIS_TYPE":0,"CLASSIFICATION_TYPE":"U","NORAD_CAT_ID":52483,"ELEMENT_SET_NO":999,"REV_AT_EPOCH":20330,"BSTAR":-4.3629998e-5,"MEAN_MOTION_DOT":-9.82e-6,"MEAN_MOTION_DDOT":0},{"OBJECT_NAME":"STARLINK-3887","OBJECT_ID":"2022-049AK","EPOCH":"2025-12-31T06:21:16.785504","MEAN_MOTION":15.08842986,"ECCENTRICITY":0.00013643,"INCLINATION":53.2185,"RA_OF_ASC_NODE":6.2937,"ARG_OF_PERICENTER":85.1948,"MEAN_ANOMALY":274.92,"EPHEMERIS_TYPE":0,"CLASSIFICATION_TYPE":"U","NORAD_CAT_ID":52484,"ELEMENT_SET_NO":999,"REV_AT_EPOCH":20192,"BSTAR":-9.791873e-6,"MEAN_MOTION_DOT":-4.44e-6,"MEAN_MOTION_DDOT":0},{"OBJECT_NAME":"STARLINK-3913","OBJECT_ID":"2022-049AL","EPOCH":"2025-12-31T06:49:05.550528","MEAN_MOTION":15.08846345,"ECCENTRICITY":0.00015461,"INCLINATION":53.2197,"RA_OF_ASC_NODE":356.2115,"ARG_OF_PERICENTER":99.8089,"MEAN_ANOMALY":260.3078,"EPHEMERIS_TYPE":0,"CLASSIFICATION_TYPE":"U","NORAD_CAT_ID":52485,"ELEMENT_SET_NO":999,"REV_AT_EPOCH":20206,"BSTAR":0.00029302363,"MEAN_MOTION_DOT":4.379e-5,"MEAN_MOTION_DDOT":0},{"OBJECT_NAME":"STARLINK-3918","OBJECT_ID":"2022-049AM","EPOCH":"2025-12-31T06:10:42.242304","MEAN_MOTION":15.08827006,"ECCENTRICITY":0.00011444,"INCLINATION":53.2182,"RA_OF_ASC_NODE":6.3253,"ARG_OF_PERICENTER":82.1725,"MEAN_ANOMALY":277.9397,"EPHEMERIS_TYPE":0,"CLASSIFICATION_TYPE":"U","NORAD_CAT_ID":52486,"ELEMENT_SET_NO":999,"REV_AT_EPOCH":20192,"BSTAR":2.245851e-5,"MEAN_MOTION_DOT":7.0e-7,"MEAN_MOTION_DDOT":0},{"OBJECT_NAME":"STARLINK-3902","OBJECT_ID":"2022-049AN","EPOCH":"2025-12-31T07:05:01.004064","MEAN_MOTION":15.08837606,"ECCENTRICITY":0.00012622,"INCLINATION":53.2189,"RA_OF_ASC_NODE":356.2611,"ARG_OF_PERICENTER":97.402,"MEAN_ANOMALY":262.7116,"EPHEMERIS_TYPE":0,"CLASSIFICATION_TYPE":"U","NORAD_CAT_ID":52487,"ELEMENT_SET_NO":999,"REV_AT_EPOCH":20330,"BSTAR":0.00010499792,"MEAN_MOTION_DOT":1.383e-5,"MEAN_MOTION_DDOT":0},{"OBJECT_NAME":"STARLINK-3892","OBJECT_ID":"2022-049AP","EPOCH":"2025-12-31T06:05:23.666496","MEAN_MOTION":15.0883607,"ECCENTRICITY":0.0001671,"INCLINATION":53.2191,"RA_OF_ASC_NODE":6.3424,"ARG_OF_PERICENTER":83.6763,"MEAN_ANOMALY":276.442,"EPHEMERIS_TYPE":0,"CLASSIFICATION_TYPE":"U","NORAD_CAT_ID":52488,"ELEMENT_SET_NO":999,"REV_AT_EPOCH":20192,"BSTAR":3.9771097e-5,"MEAN_MOTION_DOT":3.45e-6,"MEAN_MOTION_DDOT":0},{"OBJECT_NAME":"STARLINK-3923","OBJECT_ID":"2022-049AQ","EPOCH":"2025-12-31T04:40:35.830560","MEAN_MOTION":15.08834151,"ECCENTRICITY":0.00014514,"INCLINATION":53.2196,"RA_OF_ASC_NODE":6.609,"ARG_OF_PERICENTER":91.5129,"MEAN_ANOMALY":268.6029,"EPHEMERIS_TYPE":0,"CLASSIFICATION_TYPE":"U","NORAD_CAT_ID":52489,"ELEMENT_SET_NO":999,"REV_AT_EPOCH":20191,"BSTAR":9.490517e-5,"MEAN_MOTION_DOT":1.223e-5,"MEAN_MOTION_DDOT":0},{"OBJECT_NAME":"STARLINK-3914","OBJECT_ID":"2022-049AR","EPOCH":"2025-12-31T06:27:54.126144","MEAN_MOTION":15.0883769,"ECCENTRICITY":0.00014318,"INCLINATION":53.2179,"RA_OF_ASC_NODE":356.271,"ARG_OF_PERICENTER":93.71,"MEAN_ANOMALY":266.4056,"EPHEMERIS_TYPE":0,"CLASSIFICATION_TYPE":"U","NORAD_CAT_ID":52490,"ELEMENT_SET_NO":999,"REV_AT_EPOCH":20206,"BSTAR":5.3942946e-5,"MEAN_MOTION_DOT":5.71e-6,"MEAN_MOTION_DDOT":0},{"OBJECT_NAME":"STARLINK-3908","OBJECT_ID":"2022-049AS","EPOCH":"2025-12-31T05:03:06.940800","MEAN_MOTION":15.08836024,"ECCENTRICITY":0.00015026,"INCLINATION":53.2187,"RA_OF_ASC_NODE":356.5362,"ARG_OF_PERICENTER":96.4085,"MEAN_ANOMALY":263.7078,"EPHEMERIS_TYPE":0,"CLASSIFICATION_TYPE":"U","NORAD_CAT_ID":52491,"ELEMENT_SET_NO":999,"REV_AT_EPOCH":20205,"BSTAR":2.4790742e-5,"MEAN_MOTION_DOT":1.07e-6,"MEAN_MOTION_DDOT":0},{"OBJECT_NAME":"STARLINK-3916","OBJECT_ID":"2022-049AT","EPOCH":"2025-12-31T06:17:18.242016","MEAN_MOTION":15.08835774,"ECCENTRICITY":0.00014072,"INCLINATION":53.2189,"RA_OF_ASC_NODE":356.3049,"ARG_OF_PERICENTER":98.7836,"MEAN_ANOMALY":261.3316,"EPHEMERIS_TYPE":0,"CLASSIFICATION_TYPE":"U","NORAD_CAT_ID":52492,"ELEMENT_SET_NO":999,"REV_AT_EPOCH":20206,"BSTAR":1.7896894e-5,"MEAN_MOTION_DOT":-3.0e-8,"MEAN_MOTION_DDOT":0},{"OBJECT_NAME":"STARLINK-3883","OBJECT_ID":"2022-049AU","EPOCH":"2025-12-31T06:33:12.096288","MEAN_MOTION":15.08846133,"ECCENTRICITY":0.00013648,"INCLINATION":53.2186,"RA_OF_ASC_NODE":356.2561,"ARG_OF_PERICENTER":99.4764,"MEAN_ANOMALY":260.6382,"EPHEMERIS_TYPE":0,"CLASSIFICATION_TYPE":"U","NORAD_CAT_ID":52493,"ELEMENT_SET_NO":999,"REV_AT_EPOCH":20206,"BSTAR":-0.00015807967,"MEAN_MOTION_DOT":-2.803e-5,"MEAN_MOTION_DDOT":0},{"OBJECT_NAME":"STARLINK-3857","OBJECT_ID":"2022-049AV","EPOCH":"2025-12-31T06:01:25.788288","MEAN_MOTION":15.08817588,"ECCENTRICITY":0.00013562,"INCLINATION":53.218,"RA_OF_ASC_NODE":356.3529,"ARG_OF_PERICENTER":97.024,"MEAN_ANOMALY":263.0907,"EPHEMERIS_TYPE":0,"CLASSIFICATION_TYPE":"U","NORAD_CAT_ID":52494,"ELEMENT_SET_NO":999,"REV_AT_EPOCH":20206,"BSTAR":-0.00014266755,"MEAN_MOTION_DOT":-2.556e-5,"MEAN_MOTION_DDOT":0},{"OBJECT_NAME":"STARLINK-3871","OBJECT_ID":"2022-049AX","EPOCH":"2025-12-31T06:52:24.807936","MEAN_MOTION":15.08841079,"ECCENTRICITY":0.00011038,"INCLINATION":53.218,"RA_OF_ASC_NODE":351.1966,"ARG_OF_PERICENTER":103.1003,"MEAN_ANOMALY":257.0112,"EPHEMERIS_TYPE":0,"CLASSIFICATION_TYPE":"U","NORAD_CAT_ID":52496,"ELEMENT_SET_NO":999,"REV_AT_EPOCH":20213,"BSTAR":-0.00015660307,"MEAN_MOTION_DOT":-2.779e-5,"MEAN_MOTION_DDOT":0},{"OBJECT_NAME":"STARLINK-3884","OBJECT_ID":"2022-049AY","EPOCH":"2025-12-31T06:12:00.141408","MEAN_MOTION":15.08836185,"ECCENTRICITY":0.00013679,"INCLINATION":53.2171,"RA_OF_ASC_NODE":356.321,"ARG_OF_PERICENTER":90.6414,"MEAN_ANOMALY":269.4735,"EPHEMERIS_TYPE":0,"CLASSIFICATION_TYPE":"U","NORAD_CAT_ID":52497,"ELEMENT_SET_NO":999,"REV_AT_EPOCH":20206,"BSTAR":2.5150571e-5,"MEAN_MOTION_DOT":1.12e-6,"MEAN_MOTION_DDOT":0},{"OBJECT_NAME":"STARLINK-3925","OBJECT_ID":"2022-049AZ","EPOCH":"2025-12-31T05:36:13.950720","MEAN_MOTION":15.08837305,"ECCENTRICITY":0.00014006,"INCLINATION":53.2189,"RA_OF_ASC_NODE":346.4318,"ARG_OF_PERICENTER":95.9752,"MEAN_ANOMALY":264.1399,"EPHEMERIS_TYPE":0,"CLASSIFICATION_TYPE":"U","NORAD_CAT_ID":52498,"ELEMENT_SET_NO":999,"REV_AT_EPOCH":20219,"BSTAR":5.5439565e-5,"MEAN_MOTION_DOT":5.94e-6,"MEAN_MOTION_DDOT":0},{"OBJECT_NAME":"STARLINK-3894","OBJECT_ID":"2022-049BA","EPOCH":"2025-12-31T06:06:42.280992","MEAN_MOTION":15.08836634,"ECCENTRICITY":0.00014025,"INCLINATION":53.2183,"RA_OF_ASC_NODE":356.3374,"ARG_OF_PERICENTER":93.9144,"MEAN_ANOMALY":266.2008,"EPHEMERIS_TYPE":0,"CLASSIFICATION_TYPE":"U","NORAD_CAT_ID":52499,"ELEMENT_SET_NO":999,"REV_AT_EPOCH":20206,"BSTAR":3.4153046e-5,"MEAN_MOTION_DOT":2.56e-6,"MEAN_MOTION_DDOT":0},{"OBJECT_NAME":"STARLINK-3866","OBJECT_ID":"2022-049BB","EPOCH":"2025-12-31T05:30:56.047968","MEAN_MOTION":15.08836203,"ECCENTRICITY":0.00014457,"INCLINATION":53.2179,"RA_OF_ASC_NODE":346.4515,"ARG_OF_PERICENTER":81.9516,"MEAN_ANOMALY":278.164,"EPHEMERIS_TYPE":0,"CLASSIFICATION_TYPE":"U","NORAD_CAT_ID":52500,"ELEMENT_SET_NO":999,"REV_AT_EPOCH":20219,"BSTAR":8.3902031e-5,"MEAN_MOTION_DOT":1.047e-5,"MEAN_MOTION_DDOT":0},{"OBJECT_NAME":"STARLINK-3907","OBJECT_ID":"2022-049BC","EPOCH":"2025-12-31T07:10:15.591648","MEAN_MOTION":15.08841617,"ECCENTRICITY":0.00013744,"INCLINATION":53.219,"RA_OF_ASC_NODE":355.9355,"ARG_OF_PERICENTER":100.827,"MEAN_ANOMALY":259.2877,"EPHEMERIS_TYPE":0,"CLASSIFICATION_TYPE":"U","NORAD_CAT_ID":52501,"ELEMENT_SET_NO":999,"REV_AT_EPOCH":20207,"BSTAR":0.00017225384,"MEAN_MOTION_DOT":2.455e-5,"MEAN_MOTION_DDOT":0},{"OBJECT_NAME":"STARLINK-3912","OBJECT_ID":"2022-049BD","EPOCH":"2025-12-31T05:25:38.522784","MEAN_MOTION":15.08838372,"ECCENTRICITY":0.00014135,"INCLINATION":53.2184,"RA_OF_ASC_NODE":346.4957,"ARG_OF_PERICENTER":89.5675,"MEAN_ANOMALY":270.548,"EPHEMERIS_TYPE":0,"CLASSIFICATION_TYPE":"U","NORAD_CAT_ID":52502,"ELEMENT_SET_NO":999,"REV_AT_EPOCH":20219,"BSTAR":2.6604982e-5,"MEAN_MOTION_DOT":1.35e-6,"MEAN_MOTION_DDOT":0}]
